{
  "fetched_at": "2026-05-19T14:33:09.290826+00:00",
  "satellites": {
    "57166": {
      "name": "Meteor M2-3",
      "tle_line1": "1 57166U 23091A   26139.29090420 -.00000006  00000+0  16177-4 0  9999",
      "tle_line2": "2 57166  98.6098 194.8574 0002836 247.1432 112.9448 14.24044051150401"
    },
    "59051": {
      "name": "Meteor M2-4",
      "tle_line1": "1 59051U 24039A   26139.27282582 -.00000011  00000+0  14925-4 0  9992",
      "tle_line2": "2 59051  98.6995  98.9374 0005935 251.4004 108.6530 14.22426225115152"
    },
    "38771": {
      "name": "MetOp-B",
      "tle_line1": "1 38771U 12049A   26139.25870342  .00000064  00000+0  49318-4 0  9992",
      "tle_line2": "2 38771  98.6523 191.3322 0003454  80.3962 279.7606 14.21423939709153"
    },
    "43689": {
      "name": "MetOp-C",
      "tle_line1": "1 43689U 18087A   26139.27951454  .00000060  00000+0  47347-4 0  9996",
      "tle_line2": "2 43689  98.6659 199.4088 0000489 146.8266 213.2942 14.21503420390724"
    },
    "60543": {
      "name": "Arctic Weather Satellite",
      "tle_line1": "1 60543U 24149CD  26139.20575506  .00000530  00000+0  60867-4 0  9997",
      "tle_line2": "2 60543  97.6808 210.4981 0002162 163.7036 196.4252 14.89801875 94980"
    }
  }
}